{"type": "FeatureCollection", "features": [ {"type": "Feature", "properties": {"norad_id": 31752, "name": "FENGYUN 1C DEB", "group": "fengyun-1c-debris", "lat": -80.89902005457385, "lon": 148.52055021512012, "alt_km": 719.5814054594302, "timestamp": "2025-12-21T05:44:51.869673+00:00", "meta": {"OBJECT_NAME": "FENGYUN 1C DEB", "OBJECT_ID": "1999-025CFB", "EPOCH": "2025-12-18T10:55:16.632768", "MEAN_MOTION": 13.93070684, "ECCENTRICITY": 0.03557691, "INCLINATION": 98.9786, "RA_OF_ASC_NODE": 65.0821, "ARG_OF_PERICENTER": 317.9795, "MEAN_ANOMALY": 39.4568, "EPHEMERIS_TYPE": 0, "CLASSIFICATION_TYPE": "U", "NORAD_CAT_ID": 31752, "ELEMENT_SET_NO": 999, "REV_AT_EPOCH": 93670, "BSTAR": 0.0010716417, "MEAN_MOTION_DOT": 2.302e-05, "MEAN_MOTION_DDOT": 0}, "tle": {"line1": "1 31752U 99025CFB 25352.45505362  .00002302  00000+0  10716-2 0  9993", "line2": "2 31752  98.9786  65.0821 0355769 317.9795  39.4568 13.93070684936706"}}, "geometry": {"type": "Point", "coordinates": [148.52055021512012, -80.89902005457385]}}, {"type": "Feature", "properties": {"norad_id": 31753, "name": "FENGYUN 1C DEB", "group": "fengyun-1c-debris", "lat": -61.5924378627778, "lon": -168.17502454120515, "alt_km": 842.1389217780097, "timestamp": "2025-12-21T05:44:51.869684+00:00", "meta": {"OBJECT_NAME": "FENGYUN 1C DEB", "OBJECT_ID": "1999-025CFC", "EPOCH": "2025-12-20T20:58:48.661248", "MEAN_MOTION": 14.18647881, "ECCENTRICITY": 0.01594977, "INCLINATION": 98.6308, "RA_OF_ASC_NODE": 27.778, "ARG_OF_PERICENTER": 150.3852, "MEAN_ANOMALY": 25.9037, "EPHEMERIS_TYPE": 0, "CLASSIFICATION_TYPE": "U", "NORAD_CAT_ID": 31753, "ELEMENT_SET_NO": 999, "REV_AT_EPOCH": 96134, "BSTAR": 0.00021371801, "MEAN_MOTION_DOT": 4.61e-06, "MEAN_MOTION_DDOT": 0}, "tle": {"line1": "1 31753U 99025CFC 25354.87417432  .00000461  00000+0  21372-3 0  9997", "line2": "2 31753  98.6308  27.7780 0159497 150.3852  25.9037 14.18647881961342"}}, "geometry": {"type": "Point", "coordinates": [-168.17502454120515, -61.5924378627778]}}, {"type": "Feature", "properties": {"norad_id": 31754, "name": "FENGYUN 1C DEB", "group": "fengyun-1c-debris", "lat": -22.916036806059253, "lon": -35.10702141258499, "alt_km": 784.9050668682794, "timestamp": "2025-12-21T05:44:51.869693+00:00", "meta": {"OBJECT_NAME": "FENGYUN 1C DEB", "OBJECT_ID": "1999-025CFD", "EPOCH": "2025-12-19T15:33:43.119936", "MEAN_MOTION": 14.4229945, "ECCENTRICITY": 0.00493482, "INCLINATION": 99.0407, "RA_OF_ASC_NODE": 319.3487, "ARG_OF_PERICENTER": 196.9555, "MEAN_ANOMALY": 162.9985, "EPHEMERIS_TYPE": 0, "CLASSIFICATION_TYPE": "U", "NORAD_CAT_ID": 31754, "ELEMENT_SET_NO": 999, "REV_AT_EPOCH": 97089, "BSTAR": 0.00063748904, "MEAN_MOTION_DOT": 2.086e-05, "MEAN_MOTION_DDOT": 0}, "tle": {"line1": "1 31754U 99025CFD 25353.64841574  .00002086  00000+0  63749-3 0  9999", "line2": "2 31754  99.0407 319.3487 0049348 196.9555 162.9985 14.42299450970897"}}, "geometry": {"type": "Point", "coordinates": [-35.10702141258499, -22.916036806059253]}}, {"type": "Feature", "properties": {"norad_id": 31757, "name": "FENGYUN 1C DEB", "group": "fengyun-1c-debris", "lat": 12.134138434579649, "lon": 15.16914648952203, "alt_km": 759.7692302749265, "timestamp": "2025-12-21T05:44:51.869703+00:00", "meta": {"OBJECT_NAME": "FENGYUN 1C DEB", "OBJECT_ID": "1999-025CFG", "EPOCH": "2025-12-19T19:34:47.252352", "MEAN_MOTION": 14.07925739, "ECCENTRICITY": 0.02177667, "INCLINATION": 98.7671, "RA_OF_ASC_NODE": 15.6869, "ARG_OF_PERICENTER": 64.1846, "MEAN_ANOMALY": 298.1612, "EPHEMERIS_TYPE": 0, "CLASSIFICATION_TYPE": "U", "NORAD_CAT_ID": 31757, "ELEMENT_SET_NO": 999, "REV_AT_EPOCH": 63981, "BSTAR": 9.3425243e-05, "MEAN_MOTION_DOT": 1.55e-06, "MEAN_MOTION_DDOT": 0}, "tle": {"line1": "1 31757U 99025CFG 25353.81582468  .00000155  00000+0  93425-4 0  9995", "line2": "2 31757  98.7671  15.6869 0217766  64.1846 298.1612 14.07925739639819"}}, "geometry": {"type": "Point", "coordinates": [15.16914648952203, 12.134138434579649]}}, {"type": "Feature", "properties": {"norad_id": 31758, "name": "FENGYUN 1C DEB", "group": "fengyun-1c-debris", "lat": -39.37036576572524, "lon": 177.18267159666274, "alt_km": 961.947493550806, "timestamp": "2025-12-21T05:44:51.869713+00:00", "meta": {"OBJECT_NAME": "FENGYUN 1C DEB", "OBJECT_ID": "1999-025CFH", "EPOCH": "2025-12-20T18:45:49.222944", "MEAN_MOTION": 14.42196591, "ECCENTRICITY": 0.03173131, "INCLINATION": 98.0588, "RA_OF_ASC_NODE": 3.4255, "ARG_OF_PERICENTER": 65.8513, "MEAN_ANOMALY": 297.5511, "EPHEMERIS_TYPE": 0, "CLASSIFICATION_TYPE": "U", "NORAD_CAT_ID": 31758, "ELEMENT_SET_NO": 999, "REV_AT_EPOCH": 94316, "BSTAR": 0.001401927, "MEAN_MOTION_DOT": 8.454e-05, "MEAN_MOTION_DDOT": 0}, "tle": {"line1": "1 31758U 99025CFH 25354.78181971  .00008454  00000+0  14019-2 0  9997", "line2": "2 31758  98.0588   3.4255 0317313  65.8513 297.5511 14.42196591943164"}}, "geometry": {"type": "Point", "coordinates": [177.18267159666274, -39.37036576572524]}}, {"type": "Feature", "properties": {"norad_id": 31760, "name": "FENGYUN 1C DEB", "group": "fengyun-1c-debris", "lat": -33.42219316650377, "lon": -92.73185537542014, "alt_km": 768.2408875973706, "timestamp": "2025-12-21T05:44:51.869723+00:00", "meta": {"OBJECT_NAME": "FENGYUN 1C DEB", "OBJECT_ID": "1999-025CFK", "EPOCH": "2025-12-20T11:57:46.555200", "MEAN_MOTION": 14.3020398, "ECCENTRICITY": 0.00530475, "INCLINATION": 99.2542, "RA_OF_ASC_NODE": 92.6574, "ARG_OF_PERICENTER": 175.2076, "MEAN_ANOMALY": 184.9623, "EPHEMERIS_TYPE": 0, "CLASSIFICATION_TYPE": "U", "NORAD_CAT_ID": 31760, "ELEMENT_SET_NO": 999, "REV_AT_EPOCH": 96243, "BSTAR": 0.00050234992, "MEAN_MOTION_DOT": 1.272e-05, "MEAN_MOTION_DDOT": 0}, "tle": {"line1": "1 31760U 99025CFK 25354.49845550  .00001272  00000+0  50235-3 0  9990", "line2": "2 31760  99.2542  92.6574 0053047 175.2076 184.9623 14.30203980962437"}}, "geometry": {"type": "Point", "coordinates": [-92.73185537542014, -33.42219316650377]}}, {"type": "Feature", "properties": {"norad_id": 31761, "name": "FENGYUN 1C DEB", "group": "fengyun-1c-debris", "lat": -26.337784526876153, "lon": -136.9572973570208, "alt_km": 895.0538767680473, "timestamp": "2025-12-21T05:44:51.869733+00:00", "meta": {"OBJECT_NAME": "FENGYUN 1C DEB", "OBJECT_ID": "1999-025CFL", "EPOCH": "2025-12-20T02:30:09.935424", "MEAN_MOTION": 14.03556511, "ECCENTRICITY": 0.04712131, "INCLINATION": 98.6337, "RA_OF_ASC_NODE": 217.6466, "ARG_OF_PERICENTER": 242.6152, "MEAN_ANOMALY": 112.6331, "EPHEMERIS_TYPE": 0, "CLASSIFICATION_TYPE": "U", "NORAD_CAT_ID": 31761, "ELEMENT_SET_NO": 999, "REV_AT_EPOCH": 58214, "BSTAR": 0.001137025, "MEAN_MOTION_DOT": 4.795e-05, "MEAN_MOTION_DDOT": 0}, "tle": {"line1": "1 31761U 99025CFL 25354.10428166  .00004795  00000+0  11370-2 0  9998", "line2": "2 31761  98.6337 217.6466 0471213 242.6152 112.6331 14.03556511582146"}}, "geometry": {"type": "Point", "coordinates": [-136.9572973570208, -26.337784526876153]}}, {"type": "Feature", "properties": {"norad_id": 31763, "name": "FENGYUN 1C DEB", "group": "fengyun-1c-debris", "lat": 1.930014519819423, "lon": -77.24790653629428, "alt_km": 1323.8515483334313, "timestamp": "2025-12-21T05:44:51.869743+00:00", "meta": {"OBJECT_NAME": "FENGYUN 1C DEB", "OBJECT_ID": "1999-025CFN", "EPOCH": "2025-12-20T06:04:04.130976", "MEAN_MOTION": 13.50343744, "ECCENTRICITY": 0.0546555, "INCLINATION": 98.5208, "RA_OF_ASC_NODE": 101.6127, "ARG_OF_PERICENTER": 50.1377, "MEAN_ANOMALY": 9.0459, "EPHEMERIS_TYPE": 0, "CLASSIFICATION_TYPE": "U", "NORAD_CAT_ID": 31763, "ELEMENT_SET_NO": 999, "REV_AT_EPOCH": 91107, "BSTAR": 0.00041657, "MEAN_MOTION_DOT": 6.47e-06, "MEAN_MOTION_DDOT": 0}, "tle": {"line1": "1 31763U 99025CFN 25354.25282559  .00000647  00000+0  41657-3 0  9994", "line2": "2 31763  98.5208 101.6127 0546555  50.1377   9.0459 13.50343744911074"}}, "geometry": {"type": "Point", "coordinates": [-77.24790653629428, 1.930014519819423]}}, {"type": "Feature", "properties": {"norad_id": 31766, "name": "FENGYUN 1C DEB", "group": "fengyun-1c-debris", "lat": 38.692327614402885, "lon": -14.311111183520351, "alt_km": 908.0817015080574, "timestamp": "2025-12-21T05:44:51.869753+00:00", "meta": {"OBJECT_NAME": "FENGYUN 1C DEB", "OBJECT_ID": "1999-025CFR", "EPOCH": "2025-12-17T05:52:06.498624", "MEAN_MOTION": 14.05281807, "ECCENTRICITY": 0.00733682, "INCLINATION": 98.8161, "RA_OF_ASC_NODE": 348.9454, "ARG_OF_PERICENTER": 278.3877, "MEAN_ANOMALY": 80.8979, "EPHEMERIS_TYPE": 0, "CLASSIFICATION_TYPE": "U", "NORAD_CAT_ID": 31766, "ELEMENT_SET_NO": 999, "REV_AT_EPOCH": 64149, "BSTAR": 4.8529148e-05, "MEAN_MOTION_DOT": 3.7e-07, "MEAN_MOTION_DDOT": 0}, "tle": {"line1": "1 31766U 99025CFR 25351.24451966  .00000037  00000+0  48529-4 0  9992", "line2": "2 31766  98.8161 348.9454 0073368 278.3877  80.8979 14.05281807641495"}}, "geometry": {"type": "Point", "coordinates": [-14.311111183520351, 38.692327614402885]}}, {"type": "Feature", "properties": {"norad_id": 31767, "name": "FENGYUN 1C DEB", "group": "fengyun-1c-debris", "lat": 1.1288258712926673, "lon": 24.520239983480135, "alt_km": 858.1682969010781, "timestamp": "2025-12-21T05:44:51.869763+00:00", "meta": {"OBJECT_NAME": "FENGYUN 1C DEB", "OBJECT_ID": "1999-025CFS", "EPOCH": "2025-12-20T13:23:06.950112", "MEAN_MOTION": 14.04956804, "ECCENTRICITY": 0.0041505, "INCLINATION": 98.8209, "RA_OF_ASC_NODE": 24.0328, "ARG_OF_PERICENTER": 48.452, "MEAN_ANOMALY": 106.7669, "EPHEMERIS_TYPE": 0, "CLASSIFICATION_TYPE": "U", "NORAD_CAT_ID": 31767, "ELEMENT_SET_NO": 999, "REV_AT_EPOCH": 94935, "BSTAR": 0.00023026, "MEAN_MOTION_DOT": 3.31e-06, "MEAN_MOTION_DDOT": 0}, "tle": {"line1": "1 31767U 99025CFS 25354.55771933  .00000331  00000+0  23026-3 0  9990", "line2": "2 31767  98.8209  24.0328 0041505  48.4520 106.7669 14.04956804949355"}}, "geometry": {"type": "Point", "coordinates": [24.520239983480135, 1.1288258712926673]}}]}